IRIDIUM 144             
1 43249U 18030A   25288.34309997  .00000415  00000+0  14127-3 0  9990
2 43249  86.4002  32.7434 0002000  92.4120 267.7304 14.34220611395041
IRIDIUM 149             
1 43250U 18030B   25288.20989990  .00000525  00000+0  18039-3 0  9992
2 43250  86.3994  32.7686 0001938  92.7454 267.3964 14.34219125395049
IRIDIUM 157             
1 43251U 18030C   25288.57777001  .00000339  00000+0  11393-3 0  9990
2 43251  86.4005  32.6629 0002146 101.2971 258.8466 14.34219364395072
IRIDIUM 140             
1 43252U 18030D   25288.38749288  .00000046  00000+0  95305-5 0  9998
2 43252  86.4007  32.7558 0002191  91.0050 269.1397 14.34218163395109
IRIDIUM 145             
1 43253U 18030E   25287.53758464  .00000199  00000+0  63991-4 0  9995
2 43253  86.4000  33.0832 0001854  85.1356 275.0052 14.34219016394910
IRIDIUM 146             
1 43254U 18030F   25288.56508522  .00000204  00000+0  65767-4 0  9998
2 43254  86.4002  32.6670 0001904  89.8751 270.2664 14.34218538395076
IRIDIUM 148             
1 43255U 18030G   25288.53336945  .00000465  00000+0  15885-3 0  9998
2 43255  86.4006  32.7198 0001996  97.0063 263.1360 14.34220858395101
IRIDIUM 142             
1 43256U 18030H   25288.57142773  .00000269  00000+0  88831-4 0  9991
2 43256  86.4011  32.6029 0001950  90.2995 269.8424 14.34216037395073
